stk.v.11.0

# WrittenBy    STK_v11.7.1

BEGIN Ephemeris

    NumberOfEphemerisPoints		 2598

    ScenarioEpoch		 16 Jul 2020 03:40:48.000000

# Epoch in JDate format: 2459046.65333333333333
# Epoch in YYDDD format:   20198.15333333333333


    InterpolationMethod		 Lagrange

    InterpolationSamplesM1		 7

    CentralBody		 Earth

    CoordinateSystem		 ICRF

# Time of first point: 16 Jul 2020 03:40:48.000000000 UTCG = 2459046.65333333333333 JDate = 20198.15333333333333 YYDDD

    EphemerisTimePosVel		

 3.9046185999999434e+04 -3.1062712404429312e+06  3.7561573605628829e+06  4.3854917096839529e+06 -2.1690885095924223e+03  4.8552033059793994e+03 -5.6975411881343343e+03
 3.9105031999999432e+04 -3.2262195580808073e+06  4.0324560127608706e+06  4.0397403551739408e+06 -1.9059107166241756e+03  4.5315064146567383e+03 -6.0487459776636779e+03
 3.9161004999999430e+04 -3.3256841462052804e+06  4.2769912397704106e+06  3.6924618572197761e+06 -1.6467764611008972e+03  4.2028559093209060e+03 -6.3554750825891242e+03
 3.9214518999999433e+04 -3.4070226014855923e+06  4.4930988890256761e+06  3.3450930355152432e+06 -1.3920722671499657e+03  3.8710698030630610e+03 -6.6225074147153282e+03
 3.9267655999999435e+04 -3.4741452114704484e+06  4.6896928558785124e+06  2.9867325312792985e+06 -1.1334654475014686e+03  3.5259541583092459e+03 -6.8611817228984655e+03
 3.9326206999999435e+04 -3.5320364653464118e+06  4.8846068486152375e+06  2.5780681342854388e+06 -8.4317661611611334e+02  3.1292448422565762e+03 -7.0924404157667614e+03
 3.9380564999999435e+04 -3.5704554159207637e+06  5.0443778030358888e+06  2.1874019466872737e+06 -5.6986429421868343e+02  2.7471496278285613e+03 -7.2763724636228126e+03
 3.9435442999999432e+04 -3.5940969015853289e+06  5.1842776988348709e+06  1.7836980721392252e+06 -2.9141388491523628e+02  2.3495916120769602e+03 -7.4311682315208427e+03
 3.9496303999999429e+04 -3.6023935577335106e+06  5.3135574291739510e+06  1.3271357257404476e+06  1.8908892970441968e+01  1.8968841569305564e+03 -7.5657054000925846e+03
 3.9546002999999429e+04 -3.5951529120447296e+06  5.3984805369164823e+06  9.4901936796687357e+05  2.7239731355265349e+02  1.5196004179903885e+03 -7.6461032968338677e+03
 3.9595112999999430e+04 -3.5756408926095925e+06  5.4638420417090459e+06  5.7210767108545813e+05  5.2201084334250697e+02  1.1414681171214961e+03 -7.6992047675389849e+03
 3.9647557999999430e+04 -3.5413139036814654e+06  5.5130194509863770e+06  1.6746811441511934e+05  7.8663780951159038e+02  7.3330014605888744e+02 -7.7267719659421446e+03
 3.9695545999999427e+04 -3.4978061584679163e+06  5.5391927483175443e+06 -2.0339557782207493e+05  1.0261495967238966e+03  3.5722306840956088e+02 -7.7255276584235689e+03
 3.9743599999999424e+04 -3.4427980196619490e+06  5.5472837455817182e+06 -5.7410062276859407e+05  1.2626596863355060e+03 -2.0573705984531102e+01 -7.6989356982751360e+03
 3.9791997999999425e+04 -3.3760058069868237e+06  5.5370787062370172e+06 -9.4555039265407086e+05  1.4967009775773740e+03 -4.0102500734289600e+02 -7.6466002147502350e+03
 3.9840382999999427e+04 -3.2980259291978329e+06  5.5084976669971170e+06 -1.3137515990021399e+06  1.7257145667580164e+03 -7.8004864376033515e+02 -7.5688193163887145e+03
 3.9889098999999427e+04 -3.2084555397910140e+06  5.4612520823685303e+06 -1.6800497623317456e+06  1.9504997745247986e+03 -1.1590378057058479e+03 -7.4650564632678461e+03
 3.9938665999999430e+04 -3.1062444439965952e+06  5.3943257162862867e+06 -2.0469199896735242e+06  2.1724591815048625e+03 -1.5406134332632175e+03 -7.3336377669797448e+03
 3.9992694999999432e+04 -2.9825241163432896e+06  5.2999866461100196e+06 -2.4386273587293448e+06  2.4057305140479502e+03 -1.9503365447869264e+03 -7.1612428629004153e+03
 4.0047250999999429e+04 -2.8450799022989408e+06  5.1824822813416757e+06 -2.8238818176537347e+06  2.6311379269776730e+03 -2.3557972433358796e+03 -6.9570488889676353e+03
 4.0098799999999428e+04 -2.7041768647027947e+06  5.0513636945969323e+06 -3.1769524789776942e+06  2.8339006084178941e+03 -2.7297372992412288e+03 -6.7370948520000302e+03
 4.0153121999999428e+04 -2.5446896403816924e+06  4.8926253543309616e+06 -3.5360088900667257e+06  3.0359651209418607e+03 -3.1125580617496857e+03 -6.4778530573103762e+03
 4.0214010999999431e+04 -2.3533153625874342e+06  4.6904285716767265e+06 -3.9207823748212149e+06  3.2472779422969434e+03 -3.5260014670815267e+03 -6.1551373086748408e+03
 4.0273981999999429e+04 -2.1527479362008423e+06  4.4672109679520186e+06 -4.2795865671534333e+06  3.4386862415893734e+03 -3.9150018022362515e+03 -5.8057114277542396e+03
 4.0327753999999426e+04 -1.9635646927262158e+06  4.2476975675695268e+06 -4.5827747493848223e+06  3.5954021254796435e+03 -4.2467946981007681e+03 -5.4672529055548875e+03
 4.0381301999999429e+04 -1.7671856447411138e+06  4.0118284899070705e+06 -4.8660126305068461e+06  3.7368021467164144e+03 -4.5598419862215287e+03 -5.1080190600159794e+03
 4.0431814999999428e+04 -1.5753534351995199e+06  3.7743968067824380e+06 -5.1150709469759250e+06  3.8562670635811078e+03 -4.8381309816556422e+03 -4.7501802485433000e+03
 4.0485650999999430e+04 -1.3646615152422911e+06  3.5063757038301742e+06 -5.3601137900358131e+06  3.9682295021436294e+03 -5.1154011518151910e+03 -4.3500289402592543e+03
 4.0537316999999428e+04 -1.1571934319794881e+06  3.2356346688979445e+06 -5.5745772408216586e+06  4.0603660090719918e+03 -5.3617228867933136e+03 -3.9492891482975915e+03
 4.0586862999999430e+04 -9.5412779732148442e+05  2.9645243932107631e+06 -5.7604364865759406e+06  4.1343148830387954e+03 -5.5788829085666412e+03 -3.5510446224944062e+03
 4.0636161999999429e+04 -7.4878890915759513e+05  2.6845593112651198e+06 -5.9254790612772051e+06  4.1936452810052415e+03 -5.7756970717969807e+03 -3.1426256852702759e+03
 4.0692687999999427e+04 -5.1022788991083286e+05  2.3522714089203333e+06 -6.0895747905150168e+06  4.2439308904996024e+03 -5.9768640677235799e+03 -2.6612326285795280e+03
 4.0749675999999425e+04 -2.6738993002465146e+05  2.0065298258177042e+06 -6.2271127969757197e+06  4.2752339298362294e+03 -6.1523289048376364e+03 -2.1638474504412920e+03
 4.0801572999999422e+04 -4.5150553665511397e+04  1.6836307652495226e+06 -6.3274644508750420e+06  4.2866839347300365e+03 -6.2875654536710745e+03 -1.7022773993377300e+03
 4.0846288999999422e+04  1.4650624186631947e+05  1.4002326778163631e+06 -6.3945909483169448e+06  4.2834794449717820e+03 -6.3849173606837294e+03 -1.2993721278489170e+03
 4.0891658999999425e+04  3.4054070857870299e+05  1.1086556055919142e+06 -6.4441978164543286e+06  4.2678754159101445e+03 -6.4652674517321748e+03 -8.8687386970906982e+02
 4.0939838999999425e+04  5.4549678969866713e+05  7.9551356204046658e+05 -6.4763170597139485e+06  4.2377333261023487e+03 -6.5300216081385061e+03 -4.4606975200117654e+02
 4.0989600999999428e+04  7.5529888717263308e+05  4.6936640397100430e+05 -6.4871527098949701e+06  4.1920323961581480e+03 -6.5744417513063318e+03  1.0692874272559607e+01
 4.1039315999999424e+04  9.6226751436474745e+05  1.4188988810384559e+05 -6.4752758087291904e+06  4.1317521097713443e+03 -6.5958821827400870e+03  4.6696523399490951e+02
 4.1092301999999421e+04  1.1791420474695477e+06 -2.0764957226954104e+05 -6.4376861447739974e+06  4.0516516616420945e+03 -6.5934149779167756e+03  9.5141869589513817e+02
 4.1147592999999419e+04  1.4004578143096915e+06 -5.7149601574958349e+05 -6.3711935637976080e+06  3.9509587109330596e+03 -6.5629979427379512e+03  1.4529049006067344e+03
 4.1198358999999422e+04  1.5983641644089324e+06 -9.0343202488709614e+05 -6.2858604854809428e+06  3.8434837070039134e+03 -6.5101364075699894e+03  1.9079000635350153e+03
 4.1252612999999423e+04  1.8034246850225860e+06 -1.2545121089342032e+06 -6.1693267368398188e+06  3.7131737057397527e+03 -6.4274705822287187e+03  2.3864762929148487e+03
 4.1308457999999424e+04  2.0066661209220178e+06 -1.6104301157353991e+06 -6.0225339052539617e+06  3.5629208962670918e+03 -6.3144876740850395e+03  2.8687553513944899e+03
 4.1359848999999427e+04  2.1859139942052267e+06 -1.9317344065311728e+06 -5.8639367742224494e+06  3.4107531878854588e+03 -6.1859239017229283e+03  3.3015098328660351e+03
 4.1412309999999430e+04  2.3604828519274136e+06 -2.2522909400030542e+06 -5.6794210136081092e+06  3.2422705062925584e+03 -6.0308671931925119e+03  3.7306172301146917e+03
 4.1475798999999432e+04  2.5594187719609155e+06 -2.6284118819791926e+06 -5.4265812431428786e+06  3.0215287085724535e+03 -5.8118804378869054e+03  4.2304513465604368e+03
 4.1534771999999430e+04  2.7311751750110192e+06 -2.9644193438423695e+06 -5.1639341904525151e+06  2.8009920430701245e+03 -5.5787394116521973e+03  4.6732754369456143e+03
 4.1594444999999432e+04  2.8913084014220331e+06 -3.2895831306565655e+06 -4.8722706194345541e+06  2.5637697255518360e+03 -5.3148640523029890e+03  5.0980267681767191e+03
 4.1652680999999429e+04  3.0335637673677765e+06 -3.5909684597261692e+06 -4.5639073829349913e+06  2.3197454545198252e+03 -5.0314680568080257e+03  5.4878712278592684e+03
 4.1705897999999426e+04  3.1508583966598171e+06 -3.8513603122546338e+06 -4.2628899830272272e+06  2.0869371321770695e+03 -4.7512929246725789e+03  5.8211842261313577e+03
 4.1761987999999423e+04  3.2608192422260414e+06 -4.1090953715544920e+06 -3.9271108270893740e+06  1.8324691679365449e+03 -4.4353379176614926e+03  6.1472462530545699e+03
 4.1814884999999420e+04  3.3512345813192716e+06 -4.3354246533308700e+06 -3.5943595398612358e+06  1.5849367870313768e+03 -4.1191847033175209e+03  6.4297022980112188e+03
 4.1863804999999418e+04  3.4230523850084767e+06 -4.5294812652227199e+06 -3.2738924345684014e+06  1.3503590804163609e+03 -3.8121962491338018e+03  6.6682765242250007e+03
 4.1911258999999416e+04  3.4816441659741011e+06 -4.7030716464447165e+06 -2.9523919270665385e+06  1.1183925859293479e+03 -3.5020056907063463e+03  6.8781041064726069e+03
 4.1960350999999413e+04  3.5305791687436025e+06 -4.8668728884390118e+06 -2.6098735725337486e+06  8.7463756204311312e+02 -3.1693236560468658e+03  7.0720626734789121e+03
END Ephemeris
